start=new Date('2023-05-28T00:00:00.000Z').valueOf();
sats=[{"OBJECT_NAME":"STARLINK-4134","CENTER_NAME":"EARTH","ECCENTRICITY":"0.00013320","TLE_LINE1":"1 53254U 22086N   23147.12696750 -.00004696  00000-0 -27750-3 0  9991","FILE":"3918755","MEAN_MOTION":"15.08795281","REF_FRAME":"TEME","RCS_SIZE":"LARGE","MEAN_ELEMENT_THEORY":"SGP4","TLE_LINE2":"2 53254  53.2172  82.1468 0001332  97.8399 262.2744 15.08795281 47468","NORAD_CAT_ID":"53254","EPOCH":"2023-05-27T03:02:49.992000","SEMIMAJOR_AXIS":"6918.017","SITE":"AFETR","BSTAR":"-0.00027750000000","MEAN_MOTION_DDOT":"0.0000000000000","DECAY_DATE":null,"OBJECT_ID":"2022-086N","PERIAPSIS":"538.961","TIME_SYSTEM":"UTC","COUNTRY_CODE":"US","GP_ID":"232634813","ARG_OF_PERICENTER":"97.8399","PERIOD":"95.440","OBJECT_TYPE":"PAYLOAD","EPHEMERIS_TYPE":"0","CLASSIFICATION_TYPE":"U","LAUNCH_DATE":"2022-07-24","MEAN_MOTION_DOT":"-0.00004696","ELEMENT_SET_NO":"999","APOAPSIS":"540.804","MEAN_ANOMALY":"262.2744","REV_AT_EPOCH":"4746","RA_OF_ASC_NODE":"82.1468","INCLINATION":"53.2172"},{"RCS_SIZE":"LARGE","FILE":"3918755","MEAN_MOTION":"15.08837245","REF_FRAME":"TEME","OBJECT_NAME":"STARLINK-4142","TLE_LINE1":"1 53255U 22086P   23147.11124683 -.00000189  00000-0  62258-5 0  9998","CENTER_NAME":"EARTH","ECCENTRICITY":"0.00011700","SITE":"AFETR","TLE_LINE2":"2 53255  53.2163  82.2077 0001170  89.6550 270.4576 15.08837245 47443","SEMIMAJOR_AXIS":"6917.889","EPOCH":"2023-05-27T02:40:11.726112","NORAD_CAT_ID":"53255","MEAN_ELEMENT_THEORY":"SGP4","PERIOD":"95.438","ARG_OF_PERICENTER":"89.6550","GP_ID":"232635063","TIME_SYSTEM":"UTC","COUNTRY_CODE":"US","OBJECT_ID":"2022-086P","PERIAPSIS":"538.944","BSTAR":"0.00000622580000","DECAY_DATE":null,"MEAN_MOTION_DDOT":"0.0000000000000","RA_OF_ASC_NODE":"82.2077","INCLINATION":"53.2163","APOAPSIS":"540.563","LAUNCH_DATE":"2022-07-24","ELEMENT_SET_NO":"999","MEAN_MOTION_DOT":"-0.00000189","REV_AT_EPOCH":"4744","MEAN_ANOMALY":"270.4576","EPHEMERIS_TYPE":"0","CLASSIFICATION_TYPE":"U","OBJECT_TYPE":"PAYLOAD"},{"COUNTRY_CODE":"US","TIME_SYSTEM":"UTC","ARG_OF_PERICENTER":"87.0342","PERIOD":"95.437","GP_ID":"232635315","DECAY_DATE":null,"MEAN_MOTION_DDOT":"0.0000000000000","BSTAR":"0.00009587100000","PERIAPSIS":"538.920","OBJECT_ID":"2022-086Q","REV_AT_EPOCH":"4750","MEAN_ANOMALY":"273.0782","APOAPSIS":"540.518","ELEMENT_SET_NO":"999","LAUNCH_DATE":"2022-07-24","MEAN_MOTION_DOT":"0.00001239","RA_OF_ASC_NODE":"80.4032","INCLINATION":"53.2176","OBJECT_TYPE":"PAYLOAD","CLASSIFICATION_TYPE":"U","EPHEMERIS_TYPE":"0","RCS_SIZE":"LARGE","TLE_LINE1":"1 53256U 22086Q   23147.51235899  .00001239  00000-0  95871-4 0  9997","CENTER_NAME":"EARTH","ECCENTRICITY":"0.00011550","OBJECT_NAME":"STARLINK-4147","REF_FRAME":"TEME","MEAN_MOTION":"15.08848499","FILE":"3918755","SITE":"AFETR","MEAN_ELEMENT_THEORY":"SGP4","SEMIMAJOR_AXIS":"6917.854","EPOCH":"2023-05-27T12:17:47.816736","NORAD_CAT_ID":"53256","TLE_LINE2":"2 53256  53.2176  80.4032 0001155  87.0342 273.0782 15.08848499 47501"},{"SITE":"AFETR","MEAN_ELEMENT_THEORY":"SGP4","EPOCH":"2023-05-27T19:53:32.664192","SEMIMAJOR_AXIS":"6917.890","NORAD_CAT_ID":"53257","TLE_LINE2":"2 53257  53.2175  78.9891 0001197  93.9527 266.1602 15.08836830 47558","RCS_SIZE":"LARGE","TLE_LINE1":"1 53257U 22086R   23147.82885028 -.00000390  00000-0 -63976-5 0  9998","CENTER_NAME":"EARTH","ECCENTRICITY":"0.00011970","OBJECT_NAME":"STARLINK-4144","REF_FRAME":"TEME","MEAN_MOTION":"15.08836830","FILE":"3918755","REV_AT_EPOCH":"4755","MEAN_ANOMALY":"266.1602","APOAPSIS":"540.583","MEAN_MOTION_DOT":"-0.00000390","LAUNCH_DATE":"2022-07-24","ELEMENT_SET_NO":"999","INCLINATION":"53.2175","RA_OF_ASC_NODE":"78.9891","OBJECT_TYPE":"PAYLOAD","CLASSIFICATION_TYPE":"U","EPHEMERIS_TYPE":"0","COUNTRY_CODE":"US","TIME_SYSTEM":"UTC","PERIOD":"95.438","ARG_OF_PERICENTER":"93.9527","GP_ID":"232636065","DECAY_DATE":null,"MEAN_MOTION_DDOT":"0.0000000000000","BSTAR":"-0.00000639760000","PERIAPSIS":"538.927","OBJECT_ID":"2022-086R"},{"MEAN_ELEMENT_THEORY":"SGP4","NORAD_CAT_ID":"53258","SEMIMAJOR_AXIS":"6917.891","EPOCH":"2023-05-27T12:07:12.780192","TLE_LINE2":"2 53258  53.2167  80.4375 0001550  78.7486 281.3681 15.08836631 47503","SITE":"AFETR","ECCENTRICITY":"0.00015500","CENTER_NAME":"EARTH","TLE_LINE1":"1 53258U 22086S   23147.50500903  .00000774  00000-0  66711-4 0  9993","OBJECT_NAME":"STARLINK-4127","REF_FRAME":"TEME","FILE":"3918755","MEAN_MOTION":"15.08836631","RCS_SIZE":"LARGE","OBJECT_TYPE":"PAYLOAD","CLASSIFICATION_TYPE":"U","EPHEMERIS_TYPE":"0","MEAN_ANOMALY":"281.3681","REV_AT_EPOCH":"4750","MEAN_MOTION_DOT":"0.00000774","LAUNCH_DATE":"2022-07-24","ELEMENT_SET_NO":"999","APOAPSIS":"540.828","RA_OF_ASC_NODE":"80.4375","INCLINATION":"53.2167","MEAN_MOTION_DDOT":"0.0000000000000","DECAY_DATE":null,"BSTAR":"0.00006671100000","PERIAPSIS":"538.683","OBJECT_ID":"2022-086S","COUNTRY_CODE":"US","TIME_SYSTEM":"UTC","GP_ID":"232634314","ARG_OF_PERICENTER":"78.7486","PERIOD":"95.438"},{"PERIAPSIS":"538.767","OBJECT_ID":"2022-086T","MEAN_MOTION_DDOT":"0.0000000000000","DECAY_DATE":null,"BSTAR":"-0.00138740000000","GP_ID":"232634564","ARG_OF_PERICENTER":"96.2642","PERIOD":"95.436","COUNTRY_CODE":"US","TIME_SYSTEM":"UTC","CLASSIFICATION_TYPE":"U","EPHEMERIS_TYPE":"0","OBJECT_TYPE":"PAYLOAD","RA_OF_ASC_NODE":"78.2357","INCLINATION":"53.2160","MEAN_ANOMALY":"221.4005","REV_AT_EPOCH":"130","LAUNCH_DATE":"2022-07-24","ELEMENT_SET_NO":"999","MEAN_MOTION_DOT":"-0.00022312","APOAPSIS":"540.604","REF_FRAME":"TEME","MEAN_MOTION":"15.08859525","FILE":"3918755","CENTER_NAME":"EARTH","ECCENTRICITY":"0.00013280","TLE_LINE1":"1 53259U 22086T   23147.91667824 -.00022312  00000-0 -13874-2 0  9999","OBJECT_NAME":"STARLINK-4140","RCS_SIZE":"LARGE","NORAD_CAT_ID":"53259","SEMIMAJOR_AXIS":"6917.821","EPOCH":"2023-05-27T22:00:00.999936","TLE_LINE2":"2 53259  53.2160  78.2357 0001328  96.2642 221.4005 15.08859525  1304","MEAN_ELEMENT_THEORY":"SGP4","SITE":"AFETR"},{"LAUNCH_DATE":"2022-07-24","ELEMENT_SET_NO":"999","MEAN_MOTION_DOT":"0.00000769","APOAPSIS":"540.620","MEAN_ANOMALY":"269.1815","REV_AT_EPOCH":"4744","RA_OF_ASC_NODE":"82.2383","INCLINATION":"53.2175","OBJECT_TYPE":"PAYLOAD","EPHEMERIS_TYPE":"0","CLASSIFICATION_TYPE":"U","TIME_SYSTEM":"UTC","COUNTRY_CODE":"US","GP_ID":"232635815","ARG_OF_PERICENTER":"90.9320","PERIOD":"95.438","BSTAR":"0.00006637300000","MEAN_MOTION_DDOT":"0.0000000000000","DECAY_DATE":null,"OBJECT_ID":"2022-086U","PERIAPSIS":"538.889","SITE":"AFETR","MEAN_ELEMENT_THEORY":"SGP4","TLE_LINE2":"2 53260  53.2175  82.2383 0001251  90.9320 269.1815 15.08837145 47442","NORAD_CAT_ID":"53260","SEMIMAJOR_AXIS":"6917.889","EPOCH":"2023-05-27T02:29:35.740896","RCS_SIZE":"LARGE","OBJECT_NAME":"STARLINK-4136","ECCENTRICITY":"0.00012510","CENTER_NAME":"EARTH","TLE_LINE1":"1 53260U 22086U   23147.10388589  .00000769  00000-0  66373-4 0  9994","FILE":"3918755","MEAN_MOTION":"15.08837145","REF_FRAME":"TEME"},{"OBJECT_ID":"2022-086V","PERIAPSIS":"538.838","BSTAR":"0.00007236000000","MEAN_MOTION_DDOT":"0.0000000000000","DECAY_DATE":null,"GP_ID":"232635566","PERIOD":"95.437","ARG_OF_PERICENTER":"93.7199","TIME_SYSTEM":"UTC","COUNTRY_CODE":"US","EPHEMERIS_TYPE":"0","CLASSIFICATION_TYPE":"U","OBJECT_TYPE":"PAYLOAD","INCLINATION":"53.2170","RA_OF_ASC_NODE":"79.0323","LAUNCH_DATE":"2022-07-24","MEAN_MOTION_DOT":"0.00000864","ELEMENT_SET_NO":"999","APOAPSIS":"540.625","MEAN_ANOMALY":"266.3940","REV_AT_EPOCH":"4755","FILE":"3918755","MEAN_MOTION":"15.08844582","REF_FRAME":"TEME","OBJECT_NAME":"STARLINK-4062","CENTER_NAME":"EARTH","ECCENTRICITY":"0.00012920","TLE_LINE1":"1 53261U 22086V   23147.81780596  .00000864  00000-0  72360-4 0  9996","RCS_SIZE":"LARGE","TLE_LINE2":"2 53261  53.2170  79.0323 0001292  93.7199 266.3940 15.08844582 47559","NORAD_CAT_ID":"53261","EPOCH":"2023-05-27T19:37:38.434944","SEMIMAJOR_AXIS":"6917.866","MEAN_ELEMENT_THEORY":"SGP4","SITE":"AFETR"},{"OBJECT_TYPE":"PAYLOAD","EPHEMERIS_TYPE":"0","CLASSIFICATION_TYPE":"U","ELEMENT_SET_NO":"999","LAUNCH_DATE":"2022-07-24","MEAN_MOTION_DOT":"-0.00000940","APOAPSIS":"540.447","MEAN_ANOMALY":"271.8952","REV_AT_EPOCH":"4755","RA_OF_ASC_NODE":"79.0013","INCLINATION":"53.2173","BSTAR":"-0.00004096800000","MEAN_MOTION_DDOT":"0.0000000000000","DECAY_DATE":null,"OBJECT_ID":"2022-086W","PERIAPSIS":"539.052","TIME_SYSTEM":"UTC","COUNTRY_CODE":"US","GP_ID":"232634814","PERIOD":"95.438","ARG_OF_PERICENTER":"88.2156","MEAN_ELEMENT_THEORY":"SGP4","TLE_LINE2":"2 53262  53.2173  79.0013 0001008  88.2156 271.8952 15.08838667 47557","NORAD_CAT_ID":"53262","EPOCH":"2023-05-27T19:48:14.619744","SEMIMAJOR_AXIS":"6917.884","SITE":"AFETR","OBJECT_NAME":"STARLINK-4085","CENTER_NAME":"EARTH","ECCENTRICITY":"0.00010080","TLE_LINE1":"1 53262U 22086W   23147.82516921 -.00000940  00000-0 -40968-4 0  9993","FILE":"3918755","MEAN_MOTION":"15.08838667","REF_FRAME":"TEME","RCS_SIZE":"LARGE"},{"PERIAPSIS":"538.944","OBJECT_ID":"2022-086X","DECAY_DATE":null,"MEAN_MOTION_DDOT":"0.0000000000000","BSTAR":"0.00005999300000","ARG_OF_PERICENTER":"98.8337","PERIOD":"95.438","GP_ID":"232635064","COUNTRY_CODE":"US","TIME_SYSTEM":"UTC","CLASSIFICATION_TYPE":"U","EPHEMERIS_TYPE":"0","OBJECT_TYPE":"PAYLOAD","INCLINATION":"53.2174","RA_OF_ASC_NODE":"80.2368","REV_AT_EPOCH":"4751","MEAN_ANOMALY":"261.2786","APOAPSIS":"540.549","LAUNCH_DATE":"2022-07-24","MEAN_MOTION_DOT":"0.00000667","ELEMENT_SET_NO":"999","REF_FRAME":"TEME","FILE":"3918755","MEAN_MOTION":"15.08839516","TLE_LINE1":"1 53263U 22086X   23147.54916866  .00000667  00000-0  59993-4 0  9997","ECCENTRICITY":"0.00011600","CENTER_NAME":"EARTH","OBJECT_NAME":"STARLINK-4130","RCS_SIZE":"LARGE","SEMIMAJOR_AXIS":"6917.882","EPOCH":"2023-05-27T13:10:48.172224","NORAD_CAT_ID":"53263","TLE_LINE2":"2 53263  53.2174  80.2368 0001160  98.8337 261.2786 15.08839516 47511","MEAN_ELEMENT_THEORY":"SGP4","SITE":"AFETR"}];
